{"type": "FeatureCollection", "features": [ {"type": "Feature", "properties": {"norad_id": 39155, "name": "COSMOS 2485 (747)", "group": "glo-ops", "lat": -33.130096863945234, "lon": -82.2962168796604, "alt_km": 19073.417969982973, "timestamp": "2025-12-01T03:58:49.225617+00:00", "meta": {"OBJECT_NAME": "COSMOS 2485 (747)", "OBJECT_ID": "2013-019A", "EPOCH": "2025-11-24T07:30:54.982368", "MEAN_MOTION": 2.13103115, "ECCENTRICITY": 0.0024274, "INCLINATION": 65.3036, "RA_OF_ASC_NODE": 80.4871, "ARG_OF_PERICENTER": 228.0776, "MEAN_ANOMALY": 131.7167, "EPHEMERIS_TYPE": 0, "CLASSIFICATION_TYPE": "U", "NORAD_CAT_ID": 39155, "ELEMENT_SET_NO": 999, "REV_AT_EPOCH": 9791, "BSTAR": 0, "MEAN_MOTION_DOT": 1.2e-07, "MEAN_MOTION_DDOT": 0, "GROUP": "glo-ops"}, "tle": {"line1": "1 39155U 13019A   25328.31313637  .00000012  00000+0  00000+0 0  9995", "line2": "2 39155  65.3036  80.4871 0024274 228.0776 131.7167  2.13103115 97916"}}, "geometry": {"type": "Point", "coordinates": [-82.2962168796604, -33.130096863945234]}}, {"type": "Feature", "properties": {"norad_id": 39620, "name": "COSMOS 2492 (754)", "group": "glo-ops", "lat": -57.89699351411177, "lon": -172.4638712767846, "alt_km": 19119.030059322595, "timestamp": "2025-12-01T03:58:49.225639+00:00", "meta": {"OBJECT_NAME": "COSMOS 2492 (754)", "OBJECT_ID": "2014-012A", "EPOCH": "2025-11-30T08:55:51.189600", "MEAN_MOTION": 2.13103106, "ECCENTRICITY": 0.00141517, "INCLINATION": 65.4146, "RA_OF_ASC_NODE": 320.6904, "ARG_OF_PERICENTER": 310.6761, "MEAN_ANOMALY": 49.2159, "EPHEMERIS_TYPE": 0, "CLASSIFICATION_TYPE": "U", "NORAD_CAT_ID": 39620, "ELEMENT_SET_NO": 999, "REV_AT_EPOCH": 9100, "BSTAR": 0, "MEAN_MOTION_DOT": -2.1e-07, "MEAN_MOTION_DDOT": 0, "GROUP": "glo-ops"}, "tle": {"line1": "1 39620U 14012A   25334.37212025 -.00000021  00000+0  00000+0 0  9999", "line2": "2 39620  65.4146 320.6904 0014151 310.6761  49.2159  2.13103106 91005"}}, "geometry": {"type": "Point", "coordinates": [-172.4638712767846, -57.89699351411177]}}, {"type": "Feature", "properties": {"norad_id": 40001, "name": "COSMOS 2500 (755)", "group": "glo-ops", "lat": 54.35666486199176, "lon": 100.59459774150301, "alt_km": 19128.092442224042, "timestamp": "2025-12-01T03:58:49.225652+00:00", "meta": {"OBJECT_NAME": "COSMOS 2500 (755)", "OBJECT_ID": "2014-032A", "EPOCH": "2025-11-30T13:04:03.610272", "MEAN_MOTION": 2.13105909, "ECCENTRICITY": 0.0008367, "INCLINATION": 65.3503, "RA_OF_ASC_NODE": 320.4477, "ARG_OF_PERICENTER": 218.9858, "MEAN_ANOMALY": 140.9682, "EPHEMERIS_TYPE": 0, "CLASSIFICATION_TYPE": "U", "NORAD_CAT_ID": 40001, "ELEMENT_SET_NO": 999, "REV_AT_EPOCH": 8922, "BSTAR": 0, "MEAN_MOTION_DOT": -2.2e-07, "MEAN_MOTION_DDOT": 0, "GROUP": "glo-ops"}, "tle": {"line1": "1 40001U 14032A   25334.54448623 -.00000022  00000+0  00000+0 0  9991", "line2": "2 40001  65.3503 320.4477 0008367 218.9858 140.9682  2.13105909 89222"}}, "geometry": {"type": "Point", "coordinates": [100.59459774150301, 54.35666486199176]}}, {"type": "Feature", "properties": {"norad_id": 40315, "name": "COSMOS 2501 (702K)", "group": "glo-ops", "lat": -62.592018256705735, "lon": 124.11500824771984, "alt_km": 19121.059094309327, "timestamp": "2025-12-01T03:58:49.225671+00:00", "meta": {"OBJECT_NAME": "COSMOS 2501 (702K)", "OBJECT_ID": "2014-075A", "EPOCH": "2025-11-29T20:46:24.123936", "MEAN_MOTION": 2.13101314, "ECCENTRICITY": 0.00201767, "INCLINATION": 63.6137, "RA_OF_ASC_NODE": 197.2711, "ARG_OF_PERICENTER": 204.8562, "MEAN_ANOMALY": 155.1342, "EPHEMERIS_TYPE": 0, "CLASSIFICATION_TYPE": "U", "NORAD_CAT_ID": 40315, "ELEMENT_SET_NO": 999, "REV_AT_EPOCH": 8560, "BSTAR": 0, "MEAN_MOTION_DOT": 9.1e-07, "MEAN_MOTION_DDOT": 0, "GROUP": "glo-ops"}, "tle": {"line1": "1 40315U 14075A   25333.86555699  .00000091  00000+0  00000+0 0  9997", "line2": "2 40315  63.6137 197.2711 0020176 204.8562 155.1342  2.13101314 85608"}}, "geometry": {"type": "Point", "coordinates": [124.11500824771984, -62.592018256705735]}}, {"type": "Feature", "properties": {"norad_id": 41330, "name": "COSMOS 2514 (751)", "group": "glo-ops", "lat": -58.54033469089921, "lon": -89.48234646844173, "alt_km": 19125.20124900044, "timestamp": "2025-12-01T03:58:49.225697+00:00", "meta": {"OBJECT_NAME": "COSMOS 2514 (751)", "OBJECT_ID": "2016-008A", "EPOCH": "2025-11-30T07:39:02.472768", "MEAN_MOTION": 2.13102507, "ECCENTRICITY": 0.0012544, "INCLINATION": 65.1409, "RA_OF_ASC_NODE": 319.8297, "ARG_OF_PERICENTER": 219.8205, "MEAN_ANOMALY": 140.1015, "EPHEMERIS_TYPE": 0, "CLASSIFICATION_TYPE": "U", "NORAD_CAT_ID": 41330, "ELEMENT_SET_NO": 999, "REV_AT_EPOCH": 7638, "BSTAR": 0, "MEAN_MOTION_DOT": -2.1e-07, "MEAN_MOTION_DDOT": 0, "GROUP": "glo-ops"}, "tle": {"line1": "1 41330U 16008A   25334.31877862 -.00000021  00000+0  00000+0 0  9997", "line2": "2 41330  65.1409 319.8297 0012544 219.8205 140.1015  2.13102507 76387"}}, "geometry": {"type": "Point", "coordinates": [-89.48234646844173, -58.54033469089921]}}, {"type": "Feature", "properties": {"norad_id": 42939, "name": "COSMOS 2522 (752)", "group": "glo-ops", "lat": 46.487260146240104, "lon": -130.57452415048098, "alt_km": 19141.232145086775, "timestamp": "2025-12-01T03:58:49.225727+00:00", "meta": {"OBJECT_NAME": "COSMOS 2522 (752)", "OBJECT_ID": "2017-055A", "EPOCH": "2025-11-30T15:02:06.576000", "MEAN_MOTION": 2.13101882, "ECCENTRICITY": 0.0006581, "INCLINATION": 64.0757, "RA_OF_ASC_NODE": 198.6417, "ARG_OF_PERICENTER": 226.4884, "MEAN_ANOMALY": 133.5472, "EPHEMERIS_TYPE": 0, "CLASSIFICATION_TYPE": "U", "NORAD_CAT_ID": 42939, "ELEMENT_SET_NO": 999, "REV_AT_EPOCH": 6374, "BSTAR": 0, "MEAN_MOTION_DOT": 9.6e-07, "MEAN_MOTION_DDOT": 0, "GROUP": "glo-ops"}, "tle": {"line1": "1 42939U 17055A   25334.62646500  .00000096  00000+0  00000+0 0  9994", "line2": "2 42939  64.0757 198.6417 0006581 226.4884 133.5472  2.13101882 63749"}}, "geometry": {"type": "Point", "coordinates": [-130.57452415048098, 46.487260146240104]}}, {"type": "Feature", "properties": {"norad_id": 43508, "name": "COSMOS 2527 (756)", "group": "glo-ops", "lat": 64.76651332089345, "lon": 155.9495115497083, "alt_km": 19139.506721349877, "timestamp": "2025-12-01T03:58:49.225754+00:00", "meta": {"OBJECT_NAME": "COSMOS 2527 (756)", "OBJECT_ID": "2018-053A", "EPOCH": "2025-11-28T17:02:34.696320", "MEAN_MOTION": 2.1310209, "ECCENTRICITY": 0.00085767, "INCLINATION": 65.4651, "RA_OF_ASC_NODE": 80.6007, "ARG_OF_PERICENTER": 223.0414, "MEAN_ANOMALY": 136.8979, "EPHEMERIS_TYPE": 0, "CLASSIFICATION_TYPE": "U", "NORAD_CAT_ID": 43508, "ELEMENT_SET_NO": 999, "REV_AT_EPOCH": 5800, "BSTAR": 0, "MEAN_MOTION_DOT": 1.2e-07, "MEAN_MOTION_DDOT": 0, "GROUP": "glo-ops"}, "tle": {"line1": "1 43508U 18053A   25332.71012380  .00000012  00000+0  00000+0 0  9995", "line2": "2 43508  65.4651  80.6007 0008576 223.0414 136.8979  2.13102090 58006"}}, "geometry": {"type": "Point", "coordinates": [155.9495115497083, 64.76651332089345]}}, {"type": "Feature", "properties": {"norad_id": 43687, "name": "COSMOS 2529 (757)", "group": "glo-ops", "lat": 8.225048042239338, "lon": -156.7281126379029, "alt_km": 19137.156653318638, "timestamp": "2025-12-01T03:58:49.225772+00:00", "meta": {"OBJECT_NAME": "COSMOS 2529 (757)", "OBJECT_ID": "2018-086A", "EPOCH": "2025-11-30T05:10:11.501760", "MEAN_MOTION": 2.13101906, "ECCENTRICITY": 0.00073766, "INCLINATION": 64.2916, "RA_OF_ASC_NODE": 199.3117, "ARG_OF_PERICENTER": 254.6594, "MEAN_ANOMALY": 105.3481, "EPHEMERIS_TYPE": 0, "CLASSIFICATION_TYPE": "U", "NORAD_CAT_ID": 43687, "ELEMENT_SET_NO": 999, "REV_AT_EPOCH": 5504, "BSTAR": 0, "MEAN_MOTION_DOT": 9.1e-07, "MEAN_MOTION_DDOT": 0, "GROUP": "glo-ops"}, "tle": {"line1": "1 43687U 18086A   25334.21541090  .00000091  00000+0  00000+0 0  9998", "line2": "2 43687  64.2916 199.3117 0007376 254.6594 105.3481  2.13101906 55046"}}, "geometry": {"type": "Point", "coordinates": [-156.7281126379029, 8.225048042239338]}}, {"type": "Feature", "properties": {"norad_id": 44299, "name": "COSMOS 2534 (758)", "group": "glo-ops", "lat": 32.462864633247015, "lon": 1.5091336035397829, "alt_km": 19143.999902626245, "timestamp": "2025-12-01T03:58:49.225795+00:00", "meta": {"OBJECT_NAME": "COSMOS 2534 (758)", "OBJECT_ID": "2019-030A", "EPOCH": "2025-11-30T04:32:59.601408", "MEAN_MOTION": 2.13101977, "ECCENTRICITY": 0.00091335, "INCLINATION": 64.3652, "RA_OF_ASC_NODE": 199.3159, "ARG_OF_PERICENTER": 283.4728, "MEAN_ANOMALY": 191.1332, "EPHEMERIS_TYPE": 0, "CLASSIFICATION_TYPE": "U", "NORAD_CAT_ID": 44299, "ELEMENT_SET_NO": 999, "REV_AT_EPOCH": 5068, "BSTAR": 0, "MEAN_MOTION_DOT": 9.1e-07, "MEAN_MOTION_DDOT": 0, "GROUP": "glo-ops"}, "tle": {"line1": "1 44299U 19030A   25334.18957872  .00000091  00000+0  00000+0 0  9993", "line2": "2 44299  64.3652 199.3159 0009133 283.4728 191.1332  2.13101977 50683"}}, "geometry": {"type": "Point", "coordinates": [1.5091336035397829, 32.462864633247015]}}, {"type": "Feature", "properties": {"norad_id": 44850, "name": "COSMOS 2544 (759)", "group": "glo-ops", "lat": 47.182209752258885, "lon": -129.16616370756077, "alt_km": 19142.874226374486, "timestamp": "2025-12-01T03:58:49.225817+00:00", "meta": {"OBJECT_NAME": "COSMOS 2544 (759)", "OBJECT_ID": "2019-088A", "EPOCH": "2025-11-28T15:42:43.210656", "MEAN_MOTION": 2.13101801, "ECCENTRICITY": 0.00135594, "INCLINATION": 65.4525, "RA_OF_ASC_NODE": 80.4296, "ARG_OF_PERICENTER": 248.4541, "MEAN_ANOMALY": 111.4081, "EPHEMERIS_TYPE": 0, "CLASSIFICATION_TYPE": "U", "NORAD_CAT_ID": 44850, "ELEMENT_SET_NO": 999, "REV_AT_EPOCH": 4644, "BSTAR": 0, "MEAN_MOTION_DOT": 1.2e-07, "MEAN_MOTION_DDOT": 0, "GROUP": "glo-ops"}, "tle": {"line1": "1 44850U 19088A   25332.65466679  .00000012  00000+0  00000+0 0  9992", "line2": "2 44850  65.4525  80.4296 0013559 248.4541 111.4081  2.13101801 46441"}}, "geometry": {"type": "Point", "coordinates": [-129.16616370756077, 47.182209752258885]}}]}